FENGYUN 3D              
1 43010U 17072A   26198.24003102  .00000017  00000+0  29964-4 0  9994
2 43010  99.0145 173.2086 0001440  10.7302 349.3903 14.19744937449251
NOAA 20 (JPSS-1)        
1 43013U 17073A   26198.09896388  .00000016  00000+0  28706-4 0  9999
2 43013  98.7772 137.2967 0001465 122.5500 237.5818 14.19516666448712
GOES 17                 
1 43226U 18022A   26198.10765950 -.00000193  00000+0  00000+0 0  9991
2 43226   1.0120  85.2284 0000589  73.7844  85.1750  1.00270902 30726
SENTINEL-3B             
1 43437U 18039A   26198.13515455  .00000050  00000+0  38641-4 0  9997
2 43437  98.6235 265.2355 0001191 119.8190 240.3109 14.26736718428395
FENGYUN 2H              
1 43491U 18050A   26198.15878042 -.00000138  00000+0  00000+0 0  9997
2 43491   3.1065  78.7191 0002287 134.5374 217.9840  1.00266940 29737
METOP-C                 
1 43689U 18087A   26196.57486992  .00000053  00000+0  44045-4 0  9996
2 43689  98.6630 255.6574 0002216  93.2289 266.9142 14.21519167398863
GEO-KOMPSAT-2A          
1 43823U 18100A   26198.11086617 -.00000354  00000+0  00000+0 0  9997
2 43823   0.0326 169.3080 0002221 286.1070   7.6727  1.00272913 27936
METEOR-M2 2             
1 44387U 19038A   26198.16945442  .00000171  00000+0  93900-4 0  9991
2 44387  98.9158 185.9001 0000617   0.3664 359.7515 14.24373386365566
ARKTIKA-M 1             
1 47719U 21016A   26195.40739072 -.00000301  00000+0  00000+0 0  9996
2 47719  63.2662  53.6722 7297332 270.0591  14.4994  2.00611590 39330
FENGYUN 3E              
1 49008U 21062A   26198.15011600 -.00000086  00000+0 -19985-4 0  9993
2 49008  98.7496 201.2251 0002171  35.7785 324.3536 14.19905834260834
GOES 18                 
1 51850U 22021A   26198.09820867  .00000086  00000+0  00000+0 0  9994
2 51850   0.0126 123.7532 0000426  50.6687  18.8448  1.00271691  6890
NOAA 21 (JPSS-2)        
1 54234U 22150A   26198.13123066  .00000005  00000+0  23183-4 0  9991
2 54234  98.7059 136.4176 0002864 101.3251 258.8247 14.19541203190791
METEOSAT-12 (MTG-I1)    
1 54743U 22170C   26198.10947382 -.00000019  00000+0  00000+0 0  9994
2 54743   0.7271  20.0507 0003888  81.6612 232.2835  1.00268249 13277
TIANMU-1 03             
1 55973U 23039A   26198.17898260  .00008580  00000+0  16559-3 0  9992
2 55973  97.5243  13.3424 0002412  20.9560 339.1788 15.48077883185474
TIANMU-1 04             
1 55974U 23039B   26198.22121740  .00009524  00000+0  17962-3 0  9999
2 55974  97.5184  12.5425 0002822   4.9887 355.1391 15.48707800185499
TIANMU-1 05             
1 55975U 23039C   26198.22586059  .00008526  00000+0  16498-3 0  9992
2 55975  97.5228  12.9948 0002788  40.5003 319.6454 15.48004155185465
TIANMU-1 06             
1 55976U 23039D   26198.16192000  .00009051  00000+0  17141-3 0  9995
2 55976  97.5236  13.5945 0002872  31.3167 328.8253 15.48602753185481
FENGYUN 3G              
1 56232U 23055A   26198.14911032  .00014308  00000+0  22470-3 0  9993
2 56232  49.9909 191.4882 0006990  65.0381 295.1312 15.53846549184668
METEOR-M2 3             
1 57166U 23091A   26198.17070549 -.00000017  00000+0  11478-4 0  9992
2 57166  98.6067 252.5329 0005138  85.8528 274.3238 14.24049027158785
TIANMU-1 07             
1 57399U 23101A   26198.18538644  .00003378  00000+0  11841-3 0  9993
2 57399  97.2574 248.1683 0003622  60.6104 299.5498 15.30129101166238
TIANMU-1 08             
1 57400U 23101B   26198.15194840  .00003274  00000+0  11482-3 0  9995
2 57400  97.2562 247.9019 0004428  41.1107 319.0467 15.30132546166220
TIANMU-1 09             
1 57401U 23101C   26198.20005253  .00003308  00000+0  11585-3 0  9993
2 57401  97.2519 247.3496 0004219  60.2953 299.8708 15.30174000166230
TIANMU-1 10             
1 57402U 23101D   26198.16823289  .00003412  00000+0  11950-3 0  9998
2 57402  97.2599 248.3997 0005494  48.9977 311.1738 15.30147812166222
FENGYUN 3F              
1 57490U 23111A   26198.20377497  .00000007  00000+0  23606-4 0  9995
2 57490  98.6824 267.6512 0001230  75.8773 284.2540 14.19943611153122
ARKTIKA-M 2             
1 58584U 23198A   26196.17500106  .00000129  00000+0  00000+0 0  9997
2 58584  63.2178 151.2342 6910736 267.3397  18.7345  2.00608092 18886
TIANMU-1 11             
1 58645U 23205A   26198.19446825  .00002805  00000+0  10766-3 0  9992
2 58645  97.3440 219.2852 0006864 253.0153 107.0334 15.27275401142109
TIANMU-1 12             
1 58646U 23205B   26198.16708870  .00002919  00000+0  11252-3 0  9998
2 58646  97.3429 219.0044 0005973 225.7351 134.3398 15.27107293142087
TIANMU-1 13             
1 58647U 23205C   26198.20054007  .00002769  00000+0  10690-3 0  9998
2 58647  97.3457 219.3180 0006011 204.2469 155.8488 15.27099770142087
TIANMU-1 14             
1 58648U 23205D   26198.18487603  .00002836  00000+0  10924-3 0  9993
2 58648  97.3394 218.4609 0006626 211.8797 148.2042 15.27143619142088
TIANMU-1 19             
1 58660U 23208A   26198.20578633  .00004407  00000+0  14524-3 0  9993
2 58660  97.4531 314.6715 0004790 190.9056 169.2083 15.31993839141920
TIANMU-1 20             
1 58661U 23208B   26198.15503696  .00004587  00000+0  14553-3 0  9996
2 58661  97.4473 315.2870 0006515 204.5703 155.5229 15.33182885142017
