OBJECT_NAME,OBJECT_ID,EPOCH,MEAN_MOTION,ECCENTRICITY,INCLINATION,RA_OF_ASC_NODE,ARG_OF_PERICENTER,MEAN_ANOMALY,EPHEMERIS_TYPE,CLASSIFICATION_TYPE,NORAD_CAT_ID,ELEMENT_SET_NO,REV_AT_EPOCH,BSTAR,MEAN_MOTION_DOT,MEAN_MOTION_DDOT
FENGYUN 3D,2017-072A,2026-07-17T05:45:38.680128,14.19744937,.000144,99.0145,173.2086,10.7302,349.3903,0,U,43010,999,44925,.29964E-4,.17E-6,0
NOAA 20 (JPSS-1),2017-073A,2026-07-17T02:22:30.479232,14.19516666,.0001465,98.7772,137.2967,122.5500,237.5818,0,U,43013,999,44871,.28706E-4,.16E-6,0
GOES 17,2018-022A,2026-07-17T02:35:01.780800,1.00270902,.0000589,1.0120,85.2284,73.7844,85.1750,0,U,43226,999,3072,0,-.193E-5,0
SENTINEL-3B,2018-039A,2026-07-17T03:14:37.353120,14.26736718,.0001191,98.6235,265.2355,119.8190,240.3109,0,U,43437,999,42839,.38641E-4,.5E-6,0
FENGYUN 2H,2018-050A,2026-07-17T03:48:38.628288,1.00266940,.0002287,3.1065,78.7191,134.5374,217.9840,0,U,43491,999,2973,0,-.138E-5,0
METOP-C,2018-087A,2026-07-15T13:47:48.761088,14.21519167,.0002216,98.6630,255.6574,93.2289,266.9142,0,U,43689,999,39886,.44045E-4,.53E-6,0
GEO-KOMPSAT-2A,2018-100A,2026-07-17T02:39:38.837088,1.00272913,.0002221,0.0326,169.3080,286.1070,7.6727,0,U,43823,999,2793,0,-.354E-5,0
METEOR-M2 2,2019-038A,2026-07-17T04:04:00.861888,14.24373386,.0000617,98.9158,185.9001,0.3664,359.7515,0,U,44387,999,36556,.939E-4,.171E-5,0
ARKTIKA-M 1,2021-016A,2026-07-14T09:46:38.558208,2.00611590,.7297332,63.2662,53.6722,270.0591,14.4994,0,U,47719,999,3933,0,-.301E-5,0
FENGYUN 3E,2021-062A,2026-07-17T03:36:10.022400,14.19905834,.0002171,98.7496,201.2251,35.7785,324.3536,0,U,49008,999,26083,-.19985E-4,-.86E-6,0
GOES 18,2022-021A,2026-07-17T02:21:25.229088,1.00271691,.0000426,0.0126,123.7532,50.6687,18.8448,0,U,51850,999,689,0,.86E-6,0
NOAA 21 (JPSS-2),2022-150A,2026-07-17T03:08:58.329024,14.19541203,.0002864,98.7059,136.4176,101.3251,258.8247,0,U,54234,999,19079,.23183E-4,.5E-7,0
METEOSAT-12 (MTG-I1),2022-170C,2026-07-17T02:37:38.538048,1.00268249,.0003888,0.7271,20.0507,81.6612,232.2835,0,U,54743,999,1327,0,-.19E-6,0
TIANMU-1 03,2023-039A,2026-07-17T04:17:44.096640,15.48077883,.0002412,97.5243,13.3424,20.9560,339.1788,0,U,55973,999,18547,.16559E-3,.858E-4,0
TIANMU-1 04,2023-039B,2026-07-17T05:18:33.183360,15.48707800,.0002822,97.5184,12.5425,4.9887,355.1391,0,U,55974,999,18549,.17962E-3,.9524E-4,0
TIANMU-1 05,2023-039C,2026-07-17T05:25:14.354976,15.48004155,.0002788,97.5228,12.9948,40.5003,319.6454,0,U,55975,999,18546,.16498E-3,.8526E-4,0
TIANMU-1 06,2023-039D,2026-07-17T03:53:09.888000,15.48602753,.0002872,97.5236,13.5945,31.3167,328.8253,0,U,55976,999,18548,.17141E-3,.9051E-4,0
FENGYUN 3G,2023-055A,2026-07-17T03:34:43.131648,15.53846549,.000699,49.9909,191.4882,65.0381,295.1312,0,U,56232,999,18466,.2247E-3,.14308E-3,0
METEOR-M2 3,2023-091A,2026-07-17T04:05:48.954336,14.24049027,.0005138,98.6067,252.5329,85.8528,274.3238,0,U,57166,999,15878,.11478E-4,-.17E-6,0
TIANMU-1 07,2023-101A,2026-07-17T04:26:57.388416,15.30129101,.0003622,97.2574,248.1683,60.6104,299.5498,0,U,57399,999,16623,.11841E-3,.3378E-4,0
TIANMU-1 08,2023-101B,2026-07-17T03:38:48.341760,15.30132546,.0004428,97.2562,247.9019,41.1107,319.0467,0,U,57400,999,16622,.11482E-3,.3274E-4,0
TIANMU-1 09,2023-101C,2026-07-17T04:48:04.538592,15.30174000,.0004219,97.2519,247.3496,60.2953,299.8708,0,U,57401,999,16623,.11585E-3,.3308E-4,0
TIANMU-1 10,2023-101D,2026-07-17T04:02:15.321696,15.30147812,.0005494,97.2599,248.3997,48.9977,311.1738,0,U,57402,999,16622,.1195E-3,.3412E-4,0
FENGYUN 3F,2023-111A,2026-07-17T04:53:26.157408,14.19943611,.000123,98.6824,267.6512,75.8773,284.2540,0,U,57490,999,15312,.23606E-4,.7E-7,0
ARKTIKA-M 2,2023-198A,2026-07-15T04:12:00.091584,2.00608092,.69107365,63.2178,151.2342,267.3397,18.7345,0,U,58584,999,1888,0,.129E-5,0
TIANMU-1 11,2023-205A,2026-07-17T04:40:02.056800,15.27275401,.0006864,97.3440,219.2852,253.0153,107.0334,0,U,58645,999,14210,.10766E-3,.2805E-4,0
TIANMU-1 12,2023-205B,2026-07-17T04:00:36.463680,15.27107293,.0005973,97.3429,219.0044,225.7351,134.3398,0,U,58646,999,14208,.11252E-3,.2919E-4,0
TIANMU-1 13,2023-205C,2026-07-17T04:48:46.662048,15.27099770,.0006011,97.3457,219.3180,204.2469,155.8488,0,U,58647,999,14208,.1069E-3,.2769E-4,0
TIANMU-1 14,2023-205D,2026-07-17T04:26:13.288992,15.27143619,.0006626,97.3394,218.4609,211.8797,148.2042,0,U,58648,999,14208,.10924E-3,.2836E-4,0
TIANMU-1 19,2023-208A,2026-07-17T04:56:19.938912,15.31993839,.000479,97.4531,314.6715,190.9056,169.2083,0,U,58660,999,14192,.14524E-3,.4407E-4,0
TIANMU-1 20,2023-208B,2026-07-17T03:43:15.193344,15.33182885,.0006515,97.4473,315.2870,204.5703,155.5229,0,U,58661,999,14201,.14553E-3,.4587E-4,0
